GREENCUBE               
1 53106U 22080B   24304.53297825 -.00000003  00000+0  00000+0 0  9993
2 53106  70.1303 145.5071 0008350  77.3743 282.7850  6.42557747 53963
CAS-5A (FO-118)         
1 54684U 22167C   24306.20011975  .00146509  00000+0  28216-2 0  9990
2 54684  97.6159  95.7960 0007327   6.7423 353.3923 15.47308245105343
STRATOSAT-TK 1 (RS52S)  
1 57167U 23091B   24306.20140526  .00060706  00000+0  27406-2 0  9995
2 57167  97.5926 359.4485 0013093  11.7207 348.4330 15.20674334 74313
UMKA 1 (RS40S)          
1 57172U 23091G   24306.20898601  .00020446  00000+0  12336-2 0  9998
2 57172  97.5946 356.9969 0016351  19.0789 341.1049 15.10650619 74154
CUBESX-HSE 3 (RS42S)    
1 57178U 23091N   24306.19025247  .00030433  00000+0  16999-2 0  9996
2 57178  97.5973 357.8671 0016024  11.4838 348.6756 15.13350468 74191
MONITOR-4 (RS57S)       
1 57182U 23091S   24306.16736201  .00030183  00000+0  17251-2 0  9991
2 57182  97.5964 357.5155 0016536  12.5472 347.6167 15.12520100 74178
MONITOR-2 (RS39S)       
1 57184U 23091U   24306.17939089  .00017635  00000+0  10755-2 0  9992
2 57184  97.5968 357.3825 0013665   8.9873 351.1598 15.10326025 74165
SVYATOBOR 1 (RS60S)     
1 57187U 23091X   24306.15449475  .00025828  00000+0  14621-2 0  9997
2 57187  97.5975 358.1903 0012743   5.5333 354.6036 15.12947007 74214
VIZARD-METEO (RS38S)    
1 57189U 23091Z   24306.14684941  .00034199  00000+0  18092-2 0  9994
2 57189  97.5968 358.9189 0011384   2.7897 357.3396 15.15314343 74264
NANOZOND 1 (RS49S)      
1 57190U 23091AA  24306.16365770  .00053972  00000+0  24674-2 0  9997
2 57190  97.5936   0.1114 0009398   4.4639 355.6678 15.20314662 74354
POLYTECH-UNIVERSE 3 (R*)
1 57191U 23091AB  24306.18623106  .00017708  00000+0  10770-2 0  9999
2 57191  97.5938 357.0096 0019154  24.0655 336.1465 15.10348525 74157
UTMN 2 (RS27S)          
1 57203U 23091AP  24306.19564695  .00030103  00000+0  16324-2 0  9996
2 57203  97.5962 358.6972 0011822   2.8306 357.2990 15.14460573 74259
ARCCUBE 1 (RS25S)       
1 57205U 23091AR  24306.12049581  .00054204  00000+0  22938-2 0  9999
2 57205  97.5892   0.4712 0008963   3.6952 356.4349 15.22959128 74386
KUZGTU 1 (RS47S)        
1 57217U 23091AV  24306.21692991  .00029461  00000+0  16590-2 0  9995
2 57217  97.5953 357.6729 0016107  13.0529 347.1115 15.13065157 74193
HADES-D (SO-121)        
1 58567U 23174CY  24306.16763282  .01719829  15651-2  52222-2 0  9990
2 58567  97.4226  25.4853 0006238 298.8718  61.1929 15.92401118 54944
SONATE-2                
1 59112U 24043Q   24305.87504442  .00036704  00000+0  14874-2 0  9994
2 59112  97.4938  68.8467 0013494 173.3215 186.8205 15.24475403 36589
MESAT1                  
1 60209U 24125G   24305.52568949  .00034440  00000+0  13912-2 0  9995
2 60209  97.3038 155.0401 0022904 202.0305 157.9951 15.24434638 18145
OOV-CUBE (TUBSAT-30)    
1 60240U 24128F   24306.22067537  .00010008  00000+0  85905-3 0  9994
2 60240  61.9962 126.3990 0021831 352.6425   7.4339 14.97797820 17120
CUTE-1 (CO-55)          
1 27844U 03031E   24305.95194001  .00001794  00000+0  80595-3 0  9995
2 27844  98.6789 311.1200 0010795 105.7525 254.4845 14.23593445107278
CUBESAT XI-IV (CO-57)   
1 27848U 03031J   24305.44958085  .00001515  00000+0  69171-3 0  9991
2 27848  98.6823 310.7879 0010524 122.0752 238.1449 14.22986269106965
CUBESAT XI-V            
1 28895U 05043F   24305.87272587  .00008440  00000+0  14406-2 0  9996
2 28895  98.2208  82.1717 0014300 286.3772  73.5860 14.69131834 14512
CUTE-1.7+APD II (CO-65) 
1 32785U 08021C   24305.87955383  .00017986  00000+0  14524-2 0  9996
2 32785  97.7740 270.4553 0008591 229.3854 130.6623 14.99863460895949
AAUSAT-II               
1 32788U 08021F   24305.93176109  .00088613  00000+0  29745-2 0  9993
2 32788  97.6042 287.7202 0008278  72.2165 287.9978 15.30481666899134
CANX-2                  
1 32790U 08021H   24305.83073465  .00015073  00000+0  12826-2 0  9998
2 32790  97.7841 269.0083 0010060 235.3146 124.7129 14.97870478895809
SEEDS II (CO-66)        
1 32791U 08021J   24306.19612051  .00038060  00000+0  23826-2 0  9992
2 32791  97.7073 277.1715 0004217 166.7736 193.3604 15.09268631897222
SWISSCUBE               
1 35932U 09051B   24305.59284349  .00005751  00000+0  12064-2 0  9997
2 35932  98.4497 191.5612 0005707 257.4294 102.6267 14.60049076802452
BEESAT-1                
1 35933U 09051C   24306.17615974  .00005800  00000+0  12271-2 0  9990
2 35933  98.4428 192.8754 0004117 272.0149  88.0579 14.59658044802681
ITUPSAT1                
1 35935U 09051E   24306.15435901  .00005250  00000+0  11389-2 0  9998
2 35935  98.4527 192.5588 0006468 279.1950  80.8517 14.58543583802259
TISAT 1                 
1 36799U 10035E   24305.61139510  .00030694  00000+0  20176-2 0  9992
2 36799  98.0701 201.2487 0005595 113.0759 247.1057 15.07521650777576
AEROCUBE 4.5A           
1 38767U 12048K   24305.51810841  .00055012  00000+0  23041-2 0  9992
2 38767  64.6555 233.7701 0110879 334.2470  25.3156 15.17709985281090
AEROCUBE 4.5B           
1 38768U 12048L   24305.83024217  .00128095  00000+0  24592-2 0  9996
2 38768  64.6469 144.8484 0074067 319.4066  40.1561 15.44310712282361
STRAND-1                
1 39090U 13009E   24305.75534323  .00001746  00000+0  61031-3 0  9991
2 39090  98.3791 130.3244 0008367 198.4389 161.6496 14.36405335611840
BRITE-AUSTRIA           
1 39091U 13009F   24305.97027759  .00001237  00000+0  43979-3 0  9992
2 39091  98.3840 129.8090 0009712 206.2209 153.8487 14.36032589611909
NEE-01 PEGASO           
1 39151U 13018B   24305.84285613  .00011361  00000+0  12444-2 0  9991
2 39151  98.0511  64.5823 0013615 316.1693  43.8441 14.87874492622286
ESTCUBE 1               
1 39161U 13021C   24306.11809239  .00008857  00000+0  12367-2 0  9993
2 39161  97.8134   8.4187 0009628 140.5453 219.6461 14.77852317617344
POPACS 1                
1 39268U 13055D   24305.54950544  .00075930  32061-6  10865-2 0  9996
2 39268  80.9775 352.9768 0346896   9.2865 351.4549 15.08905023582449
POPACS 2                
1 39269U 13055E   24305.66834395  .00029705  00000+0  65697-3 0  9999
2 39269  80.9979  90.5206 0523803 264.7051  89.4202 14.63448236575510
POPACS 3                
1 39270U 13055F   24305.54289085  .00018110  00000+0  47767-3 0  9994
2 39270  81.0038 146.0915 0612110  60.0753 305.9780 14.41149018552570
ZACUBE-1 (TSHEPISOSAT)  
1 39417U 13066B   24305.86926742  .00018521  00000+0  17773-2 0  9991
2 39417  97.7505 259.1277 0050147  68.3519 292.3030 14.92177627591944
WNISAT-1                
1 39423U 13066H   24305.47110458  .00004078  00000+0  77627-3 0  9991
2 39423  97.6660 128.8115 0167011 301.4042  57.0915 14.56005793580474
TRITON-1                
1 39427U 13066M   24306.21979961  .00017870  00000+0  23840-2 0  9991
2 39427  97.8379 219.9146 0099604   1.4790 358.6695 14.76193142586606
DELFI-N3XT              
1 39428U 13066N   24306.19005755  .00036939  00000+0  42674-2 0  9993
2 39428  97.8344 221.1940 0095227   4.9408 355.2722 14.82209486586539
GOMX-1                  
1 39430U 13066Q   24306.14609624  .00009345  00000+0  15019-2 0  9990
2 39430  97.7086 172.2069 0136512 176.2459 183.9804 14.65701714583091
CUBEBUG-2 (LO-74)       
1 39440U 13066AA  24305.80664194  .00013128  00000+0  14461-2 0  9990
2 39440  97.8252 246.8160 0066112 185.0311 175.0248 14.86057632588603
NEE-02 KRYSAOR          
1 39441U 13066AB  24305.79274694  .00008698  00000+0  10565-2 0  9998
2 39441  97.8333 242.0718 0070846 210.1327 149.5803 14.81955973588150
FUNCUBE-1 (AO-73)       
1 39444U 13066AE  24305.86594169  .00024939  00000+0  21742-2 0  9996
2 39444  97.7356 262.6769 0046847  47.4064 313.1094 14.95994216590516
UWE-3                   
1 39446U 13066AG  24305.82708686  .00014393  00000+0  14911-2 0  9998
2 39446  97.7965 252.9694 0058975 128.1152 232.5402 14.88827945589019
BRITE-CA1 (TORONTO)     
1 40020U 14033L   24305.98922640  .00004347  00000+0  68981-3 0  9993
2 40020  97.8971  78.5340 0082082  16.0014 344.3757 14.70392671555073
DUCHIFAT-1              
1 40021U 14033M   24305.91341730  .00046029  00000+0  24900-2 0  9997
2 40021  98.1003 297.4893 0012024  12.1875 347.9644 15.14441208564760
NANOSATC-BR1            
1 40024U 14033Q   24305.91347254  .00033810  00000+0  21431-2 0  9997
2 40024  98.0776 284.2914 0008432  73.9923 286.2232 15.08822343564342
QB50P1                  
1 40025U 14033R   24305.83571630  .00024565  00000+0  17821-2 0  9991
2 40025  98.0604 271.5745 0015109  81.6956 278.5981 15.03814344563896
QB50P2                  
1 40032U 14033Y   24305.86570030  .00022835  00000+0  17274-2 0  9995
2 40032  98.0175 262.3274 0011593  39.8829 320.3244 15.02284287563163
PERSEUS-M2              
1 40037U 14033AD  24306.12732389  .00008656  00000+0  86057-3 0  9998
2 40037  97.9344 237.5461 0014470 101.2845 259.0000 14.91851449562732
PERSEUS-M1              
1 40039U 14033AF  24305.76751647  .00008306  00000+0  82909-3 0  9991
2 40039  97.9121 232.8370 0014423 101.3419 258.9420 14.91703458562033
POLYITAN-1              
1 40042U 14033AJ  24305.85590982  .00037530  00000+0  24063-2 0  9995
2 40042  98.0860 276.3700 0014091  42.7134 317.5186 15.08322102563395
TIGRISAT                
1 40043U 14033AK  24305.87747209  .00010593  00000+0  13529-2 0  9999
2 40043  97.7094 102.9720 0053094 217.0429 142.7115 14.80598207557974
AEROCUBE 6A             
1 40045U 14033AM  24305.71391145  .00020570  00000+0  22531-2 0  9997
2 40045  97.6766 114.1741 0047137 191.6615 168.3513 14.86968413558056
AEROCUBE 6B             
1 40046U 14033AN  24306.20426201  .00028831  00000+0  30779-2 0  9996
2 40046  97.6733 113.4856 0045854 184.6780 175.4015 14.87974398558572
